NORAD_CAT_ID,OBJECT_NAME,OBJECT_TYPE,EPOCH,MEAN_MOTION,ECCENTRICITY,INCLINATION,RA_OF_ASC_NODE,ARG_OF_PERICENTER,MEAN_ANOMALY,BSTAR,MEAN_MOTION_DOT,MEAN_MOTION_DDOT,TLE_LINE0,TLE_LINE1,TLE_LINE2,SEMIMAJOR_AXIS,PERIOD,APOGEE,PERIGEE,DECAYED
55294.0,STARLINK-5286,PAYLOAD,2023-05-17 08:27:18,14.98342491,0.0003038,69.9993,114.6157,268.179,91.9021,-8.6243e-05,-1.122e-05,0.0,0 STARLINK-5286,1 55294U 23010AB  23137.35229687 -.00001122  00000-0 -86243-4 0  9994,2 55294  69.9993 114.6157 0003038 268.1790  91.9021 14.98342491 18594,6950.154,96.106,574.131,569.908,0.0
55294.0,STARLINK-5286,PAYLOAD,2023-05-18 02:04:47,14.98328344,0.0003152,69.9993,112.7642,269.5538,90.526,2.1277e-06,-6.8e-07,0.0,0 STARLINK-5286,1 55294U 23010AB  23138.08666350 -.00000068  00000-0  21277-5 0  9991,2 55294  69.9993 112.7642 0003152 269.5538  90.5260 14.98328344 18708,6950.198,96.107,574.254,569.872,0.0
55294.0,STARLINK-5286,PAYLOAD,2023-05-18 08:29:20,14.98316617,0.0002857,69.9996,112.0908,265.3381,94.7452,0.0002416,2.79e-05,0.0,0 STARLINK-5286,1 55294U 23010AB  23138.35370516  .00002790  00000-0  24160-3 0  9992,2 55294  69.9996 112.0908 0002857 265.3381  94.7452 14.98316617 19047,6950.234,96.108,574.085,570.114,0.0
55294.0,STARLINK-5286,PAYLOAD,2023-05-18 21:18:24,14.98329598,0.0002894,69.9998,110.7448,270.3124,89.7704,1.4859e-05,8.4e-07,0.0,0 STARLINK-5286,1 55294U 23010AB  23138.88778258  .00000084  00000-0  14859-4 0  9994,2 55294  69.9998 110.7448 0002894 270.3124  89.7704 14.98329598 19120,6950.194,96.107,574.071,570.048,0.0
55294.0,STARLINK-5286,PAYLOAD,2023-05-19 03:42:56,14.98332787,0.000288,69.9999,110.0715,270.7148,89.3681,-4.2119e-05,-5.96e-06,0.0,0 STARLINK-5286,1 55294U 23010AB  23139.15482179 -.00000596  00000-0 -42119-4 0  9999,2 55294  69.9999 110.0715 0002880 270.7148  89.3681 14.98332787 18860,6950.184,96.107,574.051,570.048,0.0
55294.0,STARLINK-5286,PAYLOAD,2023-05-19 08:31:20,14.98332064,0.0003018,69.9999,109.5665,269.3135,90.7678,-7.5638e-06,-1.83e-06,0.0,0 STARLINK-5286,1 55294U 23010AB  23139.35510069 -.00000183  00000-0 -75638-5 0  9996,2 55294  69.9999 109.5665 0003018 269.3135  90.7678 14.98332064 19198,6950.187,96.107,574.149,569.954,0.0
55294.0,STARLINK-5286,PAYLOAD,2023-05-20 03:44:57,14.98299891,0.0002937,69.9998,107.5468,264.148,95.9344,0.00054526,6.414e-05,0.0,0 STARLINK-5286,1 55294U 23010AB  23140.15622522  .00006414  00000-0  54526-3 0  9996,2 55294  69.9998 107.5468 0002937 264.1480  95.9344 14.98299891 19019,6950.286,96.109,574.192,570.11,0.0
55294.0,STARLINK-5286,PAYLOAD,2023-05-20 06:57:13,14.98331787,0.0003,69.9999,107.2101,268.057,92.0246,4.4575e-05,4.39e-06,0.0,0 STARLINK-5286,1 55294U 23010AB  23140.28973911  .00000439  00000-0  44575-4 0  9996,2 55294  69.9999 107.2101 0003000 268.0570  92.0246 14.98331787 19038,6950.187,96.107,574.137,569.967,0.0
55294.0,STARLINK-5286,PAYLOAD,2023-05-21 06:59:13,14.98336299,0.0003032,69.9997,104.6845,267.9231,92.1581,6.6867e-05,7.05e-06,0.0,0 STARLINK-5286,1 55294U 23010AB  23141.29113296  .00000705  00000-0  66867-4 0  9994,2 55294  69.9997 104.6845 0003032 267.9231  92.1581 14.98336299 19181,6950.173,96.107,574.146,569.931,0.0
55294.0,STARLINK-5286,PAYLOAD,2023-05-21 21:24:27,14.98324662,0.0003023,69.9996,103.1698,268.1675,91.9138,-2.1301e-05,-3.47e-06,0.0,0 STARLINK-5286,1 55294U 23010AB  23141.89198285 -.00000347  00000-0 -21301-4 0  9999,2 55294  69.9996 103.1698 0003023 268.1675  91.9138 14.98324662 19574,6950.209,96.107,574.175,569.973,0.0
55294.0,STARLINK-5286,PAYLOAD,2023-05-22 03:48:59,14.98323282,0.0003199,69.9995,102.4977,271.8845,88.1948,-8.355e-05,-1.09e-05,0.0,0 STARLINK-5286,1 55294U 23010AB  23142.15902665 -.00001090  00000-0 -83550-4 0  9994,2 55294  69.9995 102.4977 0003199 271.8845  88.1948 14.98323282 19315,6950.214,96.107,574.302,569.855,0.0
55294.0,STARLINK-5286,PAYLOAD,2023-05-22 07:01:16,14.98322852,0.0003041,69.9995,102.16,270.1485,89.9325,-6.2828e-05,-8.42e-06,0.0,0 STARLINK-5286,1 55294U 23010AB  23142.29254682 -.00000842  00000-0 -62828-4 0  9997,2 55294  69.9995 102.1600 0003041 270.1485  89.9325 14.98322852 19638,6950.215,96.107,574.194,569.966,0.0
55294.0,STARLINK-5286,PAYLOAD,2023-05-22 15:01:56,14.98299383,0.0003006,69.9995,101.3191,280.1246,79.9573,0.00047721,5.601e-05,0.0,0 STARLINK-5286,1 55294U 23010AB  23142.62635201  .00005601  00000-0  47721-3 0  9994,2 55294  69.9995 101.3191 0003006 280.1246  79.9573 14.98299383 19389,6950.288,96.109,574.242,570.063,0.0
55294.0,STARLINK-5286,PAYLOAD,2023-05-23 02:14:52,14.98332406,0.0003385,69.9996,100.1407,276.7386,83.3388,1.207e-05,5.1e-07,0.0,0 STARLINK-5286,1 55294U 23010AB  23143.09365920  .00000051  00000-0  12070-4 0  9998,2 55294  69.9996 100.1407 0003385 276.7386  83.3388 14.98332406 19458,6950.185,96.107,574.403,569.698,0.0
55294.0,STARLINK-5286,PAYLOAD,2023-05-23 07:03:15,14.98337626,0.0003141,69.9997,99.6356,272.1475,87.9324,2.7973e-05,2.41e-06,0.0,0 STARLINK-5286,1 55294U 23010AB  23143.29393480  .00000241  00000-0  27973-4 0  9991,2 55294  69.9997  99.6356 0003141 272.1475  87.9324 14.98337626 19485,6950.169,96.107,574.217,569.851,0.0
55294.0,STARLINK-5286,PAYLOAD,2023-05-24 03:53:01,14.98327521,0.0003073,69.9998,97.4471,272.3081,87.7726,0.00012701,1.423e-05,0.0,0 STARLINK-5286,1 55294U 23010AB  23144.16181892  .00001423  00000-0  12701-3 0  9995,2 55294  69.9998  97.4471 0003073 272.3081  87.7726 14.98327521 19611,6950.201,96.107,574.201,569.93,0.0
55294.0,STARLINK-5286,PAYLOAD,2023-05-24 07:05:17,14.98329714,0.0003011,69.9999,97.1102,271.9719,88.1095,0.0001483,1.677e-05,0.0,0 STARLINK-5286,1 55294U 23010AB  23144.29533713  .00001677  00000-0  14830-3 0  9998,2 55294  69.9999  97.1102 0003011 271.9719  88.1095 14.98329714 19930,6950.194,96.107,574.151,569.966,0.0
55294.0,STARLINK-5286,PAYLOAD,2023-05-25 21:32:30,14.9833061,0.0002705,70.0007,93.0727,262.7321,97.3531,-5.9073e-07,-1e-06,0.0,0 STARLINK-5286,1 55294U 23010AB  23145.89757947 -.00000100  00000-0 -59073-6 0  9995,2 55294  70.0007  93.0727 0002705 262.7321  97.3531 14.98330610 20179,6950.191,96.107,573.936,570.176,0.0
55294.0,STARLINK-5286,PAYLOAD,2023-05-26 03:57:03,14.98330812,0.0002707,70.0007,92.3995,262.7705,97.3146,1.7694e-06,-7.2e-07,0.0,0 STARLINK-5286,1 55294U 23010AB  23146.16461911 -.00000072  00000-0  17694-5 0  9998,2 55294  70.0007  92.3995 0002707 262.7705  97.3146 14.98330812 19912,6950.19,96.107,573.937,570.174,0.0
55294.0,STARLINK-5286,PAYLOAD,2023-05-26 05:33:11,14.98330671,0.0002709,70.0007,92.2311,263.0344,97.0506,2.8027e-08,-9.3e-07,0.0,0 STARLINK-5286,1 55294U 23010AB  23146.23137923 -.00000093  00000-0  28027-7 0  9996,2 55294  70.0007  92.2311 0002709 263.0344  97.0506 14.98330671 20224,6950.191,96.107,573.939,570.173,0.0
55294.0,STARLINK-5286,PAYLOAD,2023-05-26 21:34:31,14.98327111,0.0002725,70.0006,90.5465,263.802,96.2828,5.3618e-06,-2.9e-07,0.0,0 STARLINK-5286,1 55294U 23010AB  23146.89898147 -.00000029  00000-0  53618-5 0  9991,2 55294  70.0006  90.5465 0002725 263.8020  96.2828 14.98327111 20325,6950.202,96.107,573.961,570.173,0.0
55294.0,STARLINK-5286,PAYLOAD,2023-05-27 03:59:04,14.98327542,0.000275,70.0005,89.8725,268.2439,91.8405,1.0807e-05,3.6e-07,0.0,0 STARLINK-5286,1 55294U 23010AB  23147.16602171  .00000036  00000-0  10807-4 0  9991,2 55294  70.0005  89.8725 0002750 268.2439  91.8405 14.98327542 20066,6950.2,96.107,573.977,570.154,0.0
55294.0,STARLINK-5286,PAYLOAD,2023-05-27 21:36:32,14.98329832,0.0002814,70.0004,88.0209,268.9131,91.1705,2.0606e-05,1.53e-06,0.0,0 STARLINK-5286,1 55294U 23010AB  23147.90038057  .00000153  00000-0  20606-4 0  9997,2 55294  70.0004  88.0209 0002814 268.9131  91.1705 14.98329832 20475,6950.193,96.107,574.014,570.103,0.0
55294.0,STARLINK-5286,PAYLOAD,2023-05-28 05:37:12,14.9833267,0.00028,70.0005,87.1794,269.0769,91.0069,5.1314e-05,5.19e-06,0.0,0 STARLINK-5286,1 55294U 23010AB  23148.23417780  .00000519  00000-0  51314-4 0  9994,2 55294  70.0005  87.1794 0002800 269.0769  91.0069 14.98332670 20228,6950.185,96.107,573.996,570.104,0.0
55294.0,STARLINK-5286,PAYLOAD,2023-05-28 21:38:33,14.98330666,0.0002801,70.0006,85.4962,269.027,91.0568,4.6493e-05,4.62e-06,0.0,0 STARLINK-5286,1 55294U 23010AB  23148.90177850  .00000462  00000-0  46493-4 0  9998,2 55294  70.0006  85.4962 0002801 269.0270  91.0568 14.98330666 20626,6950.191,96.107,574.003,570.109,0.0
55294.0,STARLINK-5286,PAYLOAD,2023-05-29 05:39:13,14.98342891,0.0002858,70.0006,84.6548,268.2102,91.8729,-0.00011312,-1.443e-05,0.0,0 STARLINK-5286,1 55294U 23010AB  23149.23557362 -.00001443  00000-0 -11312-3 0  9998,2 55294  70.0006  84.6548 0002858 268.2102  91.8729 14.98342891 20376,6950.153,96.106,574.004,570.032,0.0
55294.0,STARLINK-5286,PAYLOAD,2023-05-29 20:04:26,14.98328651,0.0002779,70.0011,83.1413,268.2925,91.7915,4.8094e-07,-8.7e-07,0.0,0 STARLINK-5286,1 55294U 23010AB  23149.83642013 -.00000087  00000-0  48094-6 0  9994,2 55294  70.0011  83.1413 0002779 268.2925  91.7915 14.98328651 20769,6950.197,96.107,573.994,570.131,0.0
55294.0,STARLINK-5286,PAYLOAD,2023-05-30 02:28:59,14.98312778,0.0002648,70.001,82.4682,265.6934,94.3923,0.00021236,2.441e-05,0.0,0 STARLINK-5286,1 55294U 23010AB  23150.10346447  .00002441  00000-0  21236-3 0  9999,2 55294  70.0010  82.4682 0002648 265.6934  94.3923 14.98312778 20507,6950.246,96.108,573.952,570.271,0.0
55294.0,STARLINK-5286,PAYLOAD,2023-05-30 05:41:15,14.98328461,0.0002737,70.0009,82.1314,266.7453,93.3393,-4.1605e-05,-5.89e-06,0.0,0 STARLINK-5286,1 55294U 23010AB  23150.23698160 -.00000589  00000-0 -41605-4 0  9991,2 55294  70.0009  82.1314 0002737 266.7453  93.3393 14.98328461 20529,6950.198,96.107,573.965,570.16,0.0
55294.0,STARLINK-5286,PAYLOAD,2023-05-30 21:42:35,14.98333449,0.0002756,70.0009,80.4484,266.6277,93.4567,9.1294e-06,1.6e-07,0.0,0 STARLINK-5286,1 55294U 23010AB  23150.90457649  .00000016  00000-0  91294-5 0  9993,2 55294  70.0009  80.4484 0002756 266.6277  93.4567 14.98333449 20922,6950.182,96.107,573.963,570.132,0.0
